num,address,latitude,longitude,pincode,timeslot
0,"Shahibaug, Ahmedabad, Ahmedabad City Taluka, Ahmedabad District, Gujarat, 380001, India",23.060395955698016,72.59371316617518,380001,5:00pm - 1:00am
1,"New Ranip, Ahmedabad, Ahmedabad City Taluka, Ahmedabad District, Gujarat, 380001, India",23.0964985,72.5645095,380001,1:00am - 9:00am
2,"Naroda, Ahmedabad, Ahmedabad City Taluka, Ahmedabad District, Gujarat, 382325, India",23.078596400852188,72.64861139153778,382325,1:00am - 9:00am
3,"132 Ft. Ring Road, Akhbar nagar, Ahmedabad, Ahmedabad City Taluka, Ahmedabad District, Gujarat, 380001, India",23.067625223423693,72.57755753612675,380001,9:00am - 5:00pm
4,"Ognaj, Daskroi Taluka, Ahmedabad District, Gujarat, 380060, India",23.119939951769002,72.52728142148996,380060,1:00am - 9:00am
5,"Sabarmati, Ahmedabad, Ahmedabad City Taluka, Ahmedabad District, Gujarat, 380001, India",23.077879173962845,72.58669720825336,380001,9:00am - 5:00pm
6,"Gandhinagar Taluka, Gandhinagar District, Gujarat, 382428, India",23.129812637181942,72.64026761283169,382428,9:00am - 5:00pm
7,"Usmanpura, Ahmedabad, Ahmedabad City Taluka, Ahmedabad District, Gujarat, 380001, India",23.056641903628897,72.56424561876581,380001,9:00am - 5:00pm
8,"Gandhinagar Taluka, Gandhinagar District, Gujarat, 380019, India",23.1201798396911,72.57146943386174,380019,9:00am - 5:00pm
9,"Ahmedabad, Ahmedabad City Taluka, Ahmedabad District, Gujarat, 380001, India",23.109914270759166,72.61432490432048,380001,5:00pm - 1:00am
10,"Sardar Patel National Memorial, Airport Road, Shahibaug, Ahmedabad, Ahmedabad City Taluka, Ahmedabad District, Gujarat, 380001, India",23.0609073,72.59091218379785,380001,9:00am - 5:00pm
11,"D-cabin, Ahmedabad, Ahmedabad City Taluka, Ahmedabad District, Gujarat, 380001, India",23.1005763,72.5752828,380001,5:00pm - 1:00am
12,"Sardar Vallabhai Patel International Airport, Kubernagar-Naroda Road, Naroda, Ahmedabad, Ahmedabad City Taluka, Ahmedabad District, Gujarat, 380003, India",23.0759129,72.63051649394484,380003,1:00am - 9:00am
13,"BRTS Station, Sahijpur, Ahmedabad, Ahmedabad City Taluka, Ahmedabad District, Gujarat, 382345, India",23.054672593360948,72.64240590431608,382345,1:00am - 9:00am
14,"Railway Colony, Ahmedabad, Ahmedabad City Taluka, Ahmedabad District, Gujarat, 380001, India",23.100660924857173,72.58152477139961,380001,5:00pm - 1:00am
15,"Asharam ashram road, Ahmedabad, Ahmedabad City Taluka, Ahmedabad District, Gujarat, 380001, India",23.10214462385856,72.6019107597577,380001,5:00pm - 1:00am
16,"Khodiyar Nagar, Naranpura, Ahmedabad, Ahmedabad City Taluka, Ahmedabad District, Gujarat, 380001, India",23.063403570758815,72.5490698713053,380001,9:00am - 5:00pm
17,"Bhat, Gandhinagar Taluka, Gandhinagar District, Gujarat, 382428, India",23.100317626005296,72.64333832509323,382428,1:00am - 9:00am
18,"Apollo Hospitals International Limited, Gandhinagar-Ahmedabad Highway, Bhat, Gandhinagar Taluka, Gandhinagar District, Gujarat, 382428, India",23.10980605,72.6261057807297,382428,9:00am - 5:00pm
19,"Sardar Vallabhai Patel International Airport, Kubernagar-Naroda Road, Naroda, Ahmedabad, Ahmedabad City Taluka, Ahmedabad District, Gujarat, 380003, India",23.0759129,72.63051649394484,380003,5:00pm - 1:00am
20,"Sola, Daskroi Taluka, Ahmedabad District, Gujarat, 380061, India",23.07075926065028,72.51824680104068,380061,9:00am - 5:00pm
21,"Thaltej, Daskroi Taluka, Ahmedabad District, Gujarat, 380059, India",23.05330852372085,72.51196229809167,380059,1:00am - 9:00am
22,"Ranip, Ahmedabad, Ahmedabad City Taluka, Ahmedabad District, Gujarat, 380001, India",23.078204592514588,72.568538000334,380001,1:00am - 9:00am
23,"Gandhinagar Taluka, Gandhinagar District, Gujarat, 382428, India",23.126973963341356,72.61545403883254,382428,9:00am - 5:00pm
24,"Ognaj, Daskroi Taluka, Ahmedabad District, Gujarat, 380060, India",23.119609089811775,72.51787117885704,380060,1:00am - 9:00am
25,"Shahibaug, Ahmedabad, Ahmedabad City Taluka, Ahmedabad District, Gujarat, 380001, India",23.059436813708484,72.59829595451932,380001,9:00am - 5:00pm
26,"Meghaninagar, Ahmedabad, Ahmedabad City Taluka, Ahmedabad District, Gujarat, 380001, India",23.05306036378451,72.61040957149338,380001,1:00am - 9:00am
27,"Daskroi Taluka, Ahmedabad District, Gujarat, 380060, India",23.12545286650525,72.51362861520309,380060,5:00pm - 1:00am
28,"Gota, Chenpur, Daskroi Taluka, Ahmedabad District, Gujarat, 380019, India",23.109892626200942,72.5499761368894,380019,9:00am - 5:00pm
29,"New Ranip, Ahmedabad, Ahmedabad City Taluka, Ahmedabad District, Gujarat, 380001, India",23.09054735275348,72.56249002467845,380001,5:00pm - 1:00am
30,"Manorama Garden, Airport Road, Ambavadi / kubernagar, Ahmedabad, Ahmedabad City Taluka, Ahmedabad District, Gujarat, 380001, India",23.0897351,72.63917306274732,380001,5:00pm - 1:00am
31,"Thakkarabapa Nagar, Ahmedabad, Ahmedabad City Taluka, Ahmedabad District, Gujarat, 380001, India",23.04931784074771,72.6467446727873,380001,9:00am - 5:00pm
32,"Gandhinagar Taluka, Gandhinagar District, Gujarat, 382428, India",23.1028801,72.6512146,382428,9:00am - 5:00pm
33,"Gandhinagar Taluka, Gandhinagar District, Gujarat, 382424, India",23.130531377451984,72.6025504366466,382424,1:00am - 9:00am
34,"Ahmedabad, Ahmedabad City Taluka, Ahmedabad District, Gujarat, 380001, India",23.07463718296696,72.60547384093834,380001,1:00am - 9:00am
35,"Koteshwar, Gandhinagar Taluka, Gandhinagar District, Gujarat, 382428, India",23.10258185864023,72.615572844731,382428,1:00am - 9:00am
36,"Gandhinagar Taluka, Gandhinagar District, Gujarat, 382428, India",23.120693684265266,72.63146511843011,382428,5:00pm - 1:00am
37,"Airport Road, Shahibaug, Ahmedabad, Ahmedabad City Taluka, Ahmedabad District, Gujarat, 380001, India",23.07904661241714,72.6106321703398,380001,1:00am - 9:00am
38,"Daskroi Taluka, Ahmedabad District, Gujarat, 380019, India",23.1274403,72.5310302,380019,1:00am - 9:00am
39,"Ambavadi / kubernagar, Ahmedabad, Ahmedabad City Taluka, Ahmedabad District, Gujarat, 380001, India",23.074465310637763,72.6438306504011,380001,5:00pm - 1:00am
40,"Ghatlodiya, Ahmedabad, Ahmedabad City Taluka, Ahmedabad District, Gujarat, 380001, India",23.079472167660835,72.55977350093943,380001,5:00pm - 1:00am
41,"Shahibaug, Ahmedabad, Ahmedabad City Taluka, Ahmedabad District, Gujarat, 380001, India",23.06451843114962,72.59939070598688,380001,9:00am - 5:00pm
42,"Sola, Daskroi Taluka, Ahmedabad District, Gujarat, 380059, India",23.0680581,72.5123378,380059,5:00pm - 1:00am
43,"Ognaj, Daskroi Taluka, Ahmedabad District, Gujarat, 380060, India",23.109801946368513,72.51958773638476,380060,9:00am - 5:00pm
44,"Sola, Daskroi Taluka, Ahmedabad District, Gujarat, 380060, India",23.071641756957813,72.51214409244788,380060,5:00pm - 1:00am
45,"Ognaj, Daskroi Taluka, Ahmedabad District, Gujarat, 380060, India",23.120407852847848,72.5316685442736,380060,5:00pm - 1:00am
46,"Gota, Daskroi Taluka, Ahmedabad District, Gujarat, 382481, India",23.101374568724246,72.54492484972056,382481,1:00am - 9:00am
47,"Sabarmati Riverfront Promenade, Ranna Park, Ahmedabad, Ahmedabad City Taluka, Ahmedabad District, Gujarat, 380001, India",23.07014491773743,72.59587285892226,380001,1:00am - 9:00am
48,"New Ranip, Ahmedabad, Ahmedabad City Taluka, Ahmedabad District, Gujarat, 380001, India",23.088075656024213,72.5514420204286,380001,5:00pm - 1:00am
49,"Gota, Ognaj, Daskroi Taluka, Ahmedabad District, Gujarat, 380060, India",23.097167527583697,72.53102440993266,380060,5:00pm - 1:00am
50,"Bhat, Gandhinagar Taluka, Gandhinagar District, Gujarat, 382428, India",23.111891542639928,72.63333232717565,382428,5:00pm - 1:00am
51,"New Ranip, Ahmedabad, Ahmedabad City Taluka, Ahmedabad District, Gujarat, 380001, India",23.0956819,72.5729267,380001,1:00am - 9:00am
52,"Sola, Daskroi Taluka, Ahmedabad District, Gujarat, 380060, India",23.0737985,72.5105099,380060,5:00pm - 1:00am
53,"New Ranip, Ahmedabad, Ahmedabad City Taluka, Ahmedabad District, Gujarat, 380001, India",23.088561213699116,72.55461384633061,380001,1:00am - 9:00am
54,"Chenpur, Daskroi Taluka, Ahmedabad District, Gujarat, 380019, India",23.10260699507399,72.55606883254757,380019,9:00am - 5:00pm
55,"Ahmedabad City Taluka, Ahmedabad District, Gujarat, 382424, India",23.126936482521085,72.59562562836955,382424,9:00am - 5:00pm
56,"Daskroi Taluka, Ahmedabad District, Gujarat, 380019, India",23.1296504,72.5376579,380019,5:00pm - 1:00am
57,"Shahibaug, Ahmedabad, Ahmedabad City Taluka, Ahmedabad District, Gujarat, 380001, India",23.0595101,72.5997997,380001,5:00pm - 1:00am
58,"Naranpura, Ahmedabad, Ahmedabad City Taluka, Ahmedabad District, Gujarat, 380001, India",23.056870374892487,72.55552753455324,380001,9:00am - 5:00pm
59,"New Ranip, Ahmedabad, Ahmedabad City Taluka, Ahmedabad District, Gujarat, 380001, India",23.092646648524415,72.57171044175197,380001,9:00am - 5:00pm
60,"Naroda, Ahmedabad, Ahmedabad City Taluka, Ahmedabad District, Gujarat, 382325, India",23.062417705415022,72.64730832315115,382325,5:00pm - 1:00am
61,"Airport Road, Ambavadi / kubernagar, Ahmedabad, Ahmedabad City Taluka, Ahmedabad District, Gujarat, 380001, India",23.082703668183708,72.61822630245267,380001,1:00am - 9:00am
62,"RAMA PIR NO TEKRO, Dudheshwar, Ahmedabad, Ahmedabad City Taluka, Ahmedabad District, Gujarat, 380001, India",23.056758633756594,72.57516907235954,380001,9:00am - 5:00pm
63,"Ambavadi / kubernagar, Ahmedabad, Ahmedabad City Taluka, Ahmedabad District, Gujarat, 380001, India",23.0915951,72.6426905,380001,1:00am - 9:00am
64,"Gandhinagar Taluka, Gandhinagar District, Gujarat, 382428, India",23.125146535058647,72.64326090938637,382428,9:00am - 5:00pm
65,"Gota Road, Gota, Ognaj, Daskroi Taluka, Ahmedabad District, Gujarat, 380060, India",23.1087314144479,72.52220041149886,380060,1:00am - 9:00am
66,"Sola, Daskroi Taluka, Ahmedabad District, Gujarat, 380060, India",23.075705761412035,72.51299932530402,380060,5:00pm - 1:00am
67,"Naranpura, Ahmedabad, Ahmedabad City Taluka, Ahmedabad District, Gujarat, 380001, India",23.053865953927193,72.55070636091176,380001,9:00am - 5:00pm
68,"Gandhinagar Taluka, Gandhinagar District, Gujarat, 382424, India",23.12282613603215,72.58058898081342,382424,1:00am - 9:00am
69,"Akhbar nagar, Ahmedabad, Ahmedabad City Taluka, Ahmedabad District, Gujarat, 380001, India",23.059151925506132,72.56254034437679,380001,1:00am - 9:00am
70,"Bhagwat Nagar, Ahmedabad, Ahmedabad City Taluka, Ahmedabad District, Gujarat, 380001, India",23.062581252074544,72.52911597729684,380001,5:00pm - 1:00am
71,"Ambavadi / kubernagar, Ahmedabad, Ahmedabad City Taluka, Ahmedabad District, Gujarat, 380001, India",23.087371181872342,72.62580236293904,380001,5:00pm - 1:00am
72,"Godrej Garden city Road, Gota, Chenpur, Daskroi Taluka, Ahmedabad District, Gujarat, 382470, India",23.098039929694885,72.55963095498285,382470,5:00pm - 1:00am
73,"Bhat, Gandhinagar Taluka, Gandhinagar District, Gujarat, 382428, India",23.1094104,72.6437862,382428,5:00pm - 1:00am
74,"Bodakdev, Daskroi Taluka, Ahmedabad District, Gujarat, 380052, India",23.056037007769007,72.52659078795014,380052,1:00am - 9:00am
75,"Gandhinagar Taluka, Gandhinagar District, Gujarat, 380019, India",23.121456425581748,72.57013138625652,380019,9:00am - 5:00pm
76,"Sahijpur boga, Ahmedabad, Ahmedabad City Taluka, Ahmedabad District, Gujarat, 380001, India",23.06450901972015,72.63377296047645,380001,1:00am - 9:00am
77,"CHANDLODIA STATION ROAD, Ghatlodiya, Ahmedabad, Ahmedabad City Taluka, Ahmedabad District, Gujarat, 380001, India",23.081150730839525,72.55844449406624,380001,9:00am - 5:00pm
78,"New Ranip, Ahmedabad, Ahmedabad City Taluka, Ahmedabad District, Gujarat, 380001, India",23.083648447259016,72.5608557964396,380001,9:00am - 5:00pm
79,"Sola, Daskroi Taluka, Ahmedabad District, Gujarat, 380060, India",23.083789695741178,72.51239680625824,380060,9:00am - 5:00pm
80,"Daskroi Taluka, Ahmedabad District, Gujarat, 380060, India",23.128102417706767,72.51804882380992,380060,9:00am - 5:00pm
81,"Ahmedabad, Ahmedabad City Taluka, Ahmedabad District, Gujarat, 380001, India",23.123092281316335,72.60424713570298,380001,1:00am - 9:00am
82,"Daskroi Taluka, Ahmedabad District, Gujarat, 380060, India",23.126865148513893,72.5155924100619,380060,5:00pm - 1:00am
83,"Bhagvat, Daskroi Taluka, Ahmedabad District, Gujarat, 380060, India",23.08593013164456,72.52503296062405,380060,9:00am - 5:00pm
84,"Gandhinagar Taluka, Gandhinagar District, Gujarat, 382424, India",23.125540464084363,72.5734959934966,382424,9:00am - 5:00pm
85,"Ognaj, Daskroi Taluka, Ahmedabad District, Gujarat, 380060, India",23.118744844066306,72.51673459002424,380060,5:00pm - 1:00am
86,"Usmanpura, Ahmedabad, Ahmedabad City Taluka, Ahmedabad District, Gujarat, 380001, India",23.0588351,72.5700992,380001,1:00am - 9:00am
87,"Sahijpur boga, Ahmedabad, Ahmedabad City Taluka, Ahmedabad District, Gujarat, 380001, India",23.064226642213686,72.6344488006039,380001,5:00pm - 1:00am
88,"Akhbar nagar, Ahmedabad, Ahmedabad City Taluka, Ahmedabad District, Gujarat, 380001, India",23.06002958496788,72.56020008147095,380001,9:00am - 5:00pm
89,"New Ranip, Ahmedabad, Ahmedabad City Taluka, Ahmedabad District, Gujarat, 380001, India",23.091825524893796,72.5660654514358,380001,1:00am - 9:00am
90,"Bhat, Gandhinagar Taluka, Gandhinagar District, Gujarat, 382428, India",23.115035833182695,72.64298425257788,382428,9:00am - 5:00pm
91,"Ranip, Ahmedabad, Ahmedabad City Taluka, Ahmedabad District, Gujarat, 380001, India",23.080836119064053,72.56935912501595,380001,9:00am - 5:00pm
92,"Bhat, Gandhinagar Taluka, Gandhinagar District, Gujarat, 382428, India",23.098968443628976,72.63511268011166,382428,9:00am - 5:00pm
93,"Nava-Vadaj, Ahmedabad, Ahmedabad City Taluka, Ahmedabad District, Gujarat, 380001, India",23.07784266631165,72.56108178564882,380001,5:00pm - 1:00am
94,"Bhat, Koteshwar, Gandhinagar Taluka, Gandhinagar District, Gujarat, 382475, India",23.093238141320168,72.62801076456675,382475,9:00am - 5:00pm
95,"Karmachari Nagar, Ahmedabad, Ahmedabad City Taluka, Ahmedabad District, Gujarat, 380001, India",23.07224841575884,72.53610228709185,380001,5:00pm - 1:00am
96,"Sola, Daskroi Taluka, Ahmedabad District, Gujarat, 380060, India",23.07042898623517,72.51062817986825,380060,1:00am - 9:00am
97,"Tragad, Ahmedabad City Taluka, Ahmedabad District, Gujarat, 380019, India",23.12007,72.5589494,380019,5:00pm - 1:00am
98,"Tragad, Ahmedabad City Taluka, Ahmedabad District, Gujarat, 382424, India",23.130006299925352,72.56357200294853,382424,9:00am - 5:00pm
99,"Sardar Patel Sports Complex, Motera Stadium Entry Road, Sabarmati, Ahmedabad, Ahmedabad City Taluka, Ahmedabad District, Gujarat, 380001, India",23.09269475,72.59783578302674,380001,9:00am - 5:00pm
100,"Bodakdev, Daskroi Taluka, Ahmedabad District, Gujarat, 380061, India",23.058200936797352,72.52514612588276,380061,1:00am - 9:00am
101,"Ghatlodiya, Ahmedabad, Ahmedabad City Taluka, Ahmedabad District, Gujarat, 380001, India",23.07969171738649,72.55507940593263,380001,5:00pm - 1:00am
102,"Gandhinagar Taluka, Gandhinagar District, Gujarat, 380019, India",23.11937655089221,72.56532302938484,380019,5:00pm - 1:00am
103,"Chandkheda, Ahmedabad, Ahmedabad City Taluka, Ahmedabad District, Gujarat, 380001, India",23.114140149051327,72.58708449456296,380001,5:00pm - 1:00am
104,"Sola Road, Sola, Daskroi Taluka, Ahmedabad District, Gujarat, 380061, India",23.0716529875537,72.51755235705338,380061,1:00am - 9:00am
105,"Gandhinagar Taluka, Gandhinagar District, Gujarat, 382428, India",23.118760447062574,72.61572978795557,382428,1:00am - 9:00am
106,"Gota, Ognaj, Daskroi Taluka, Ahmedabad District, Gujarat, 382481, India",23.100426375301844,72.53240780157194,382481,5:00pm - 1:00am
107,"Sardar Patel Ring Road, Ahmedabad City Taluka, Ahmedabad District, Gujarat, 382424, India",23.129611985651906,72.59014658132261,382424,5:00pm - 1:00am
108,"Ahmedabad, Ahmedabad City Taluka, Ahmedabad District, Gujarat, 380001, India",23.109394005361604,72.60413496355868,380001,1:00am - 9:00am
109,"Ahmedabad, Ahmedabad City Taluka, Ahmedabad District, Gujarat, 380001, India",23.0838273,72.6197287,380001,9:00am - 5:00pm
110,"New Building, Tragad gam road, Tragad, Daskroi Taluka, Ahmedabad District, Gujarat, 380019, India",23.1288037,72.5452718915854,380019,1:00am - 9:00am
111,"Ahmedabad City Taluka, Ahmedabad District, Gujarat, 382424, India",23.1274058,72.5879252,382424,9:00am - 5:00pm
112,"Koteshwar, Gandhinagar Taluka, Gandhinagar District, Gujarat, 382428, India",23.10059561643699,72.61777277192627,382428,9:00am - 5:00pm
113,"Usmanpura, Ahmedabad, Ahmedabad City Taluka, Ahmedabad District, Gujarat, 380001, India",23.04816349604207,72.559395253709,380001,5:00pm - 1:00am
114,"Meghaninagar, Ahmedabad, Ahmedabad City Taluka, Ahmedabad District, Gujarat, 380001, India",23.0601491,72.6246217,380001,5:00pm - 1:00am
115,"Ahmedabad, Ahmedabad City Taluka, Ahmedabad District, Gujarat, 380001, India",23.0769064,72.6102546,380001,5:00pm - 1:00am
116,"Gandhinagar Taluka, Gandhinagar District, Gujarat, 382428, India",23.1179162,72.6405555,382428,1:00am - 9:00am
117,"Shahibaug, Ahmedabad, Ahmedabad City Taluka, Ahmedabad District, Gujarat, 380001, India",23.059419012426755,72.60620789909022,380001,5:00pm - 1:00am
118,"Bhat, Gandhinagar Taluka, Gandhinagar District, Gujarat, 382428, India",23.116917579679058,72.64047296611139,382428,5:00pm - 1:00am
119,"Shiv Mandir, Sardar Patel Ring Road, Gandhinagar Taluka, Gandhinagar District, Gujarat, 382428, India",23.1193168,72.65169715324737,382428,5:00pm - 1:00am
120,"Ranip, Ahmedabad, Ahmedabad City Taluka, Ahmedabad District, Gujarat, 380001, India",23.076129501444495,72.568278070126,380001,5:00pm - 1:00am
121,"Ahmedabad City Taluka, Ahmedabad District, Gujarat, 382424, India",23.130002532883953,72.58777726098587,382424,5:00pm - 1:00am
122,"Gandhinagar Taluka, Gandhinagar District, Gujarat, 382325, India",23.0979014,72.6533443,382325,9:00am - 5:00pm
123,"Gandhinagar Taluka, Gandhinagar District, Gujarat, 382428, India",23.117808773140986,72.62824346764836,382428,5:00pm - 1:00am
124,"Tragad gam road, Tragad, Ahmedabad City Taluka, Ahmedabad District, Gujarat, 380019, India",23.12869144640464,72.55477342000303,380019,9:00am - 5:00pm
125,"Sahijpur, Ahmedabad, Ahmedabad City Taluka, Ahmedabad District, Gujarat, 382345, India",23.0524909797621,72.63588025751393,382345,9:00am - 5:00pm
126,"Hansol, Ambavadi / kubernagar, Ahmedabad, Ahmedabad City Taluka, Ahmedabad District, Gujarat, 380001, India",23.079952249657328,72.62977074202009,380001,5:00pm - 1:00am
127,"Gandhinagar Taluka, Gandhinagar District, Gujarat, 382325, India",23.100605290267524,72.65395416701989,382325,9:00am - 5:00pm
128,"Nava-Vadaj, Ahmedabad, Ahmedabad City Taluka, Ahmedabad District, Gujarat, 380001, India",23.075879387121557,72.56309363413936,380001,1:00am - 9:00am
129,"Meghaninagar, Ahmedabad, Ahmedabad City Taluka, Ahmedabad District, Gujarat, 380001, India",23.064567821073076,72.60861056139733,380001,9:00am - 5:00pm
130,"Zydus Hospitals, Service road - Sarkhej Gandhinagar Highway, Bodakdev, Daskroi Taluka, Ahmedabad District, Gujarat, 380054, India",23.0585119,72.51744059224065,380054,1:00am - 9:00am
131,"S P Ring Road, Daskroi Taluka, Ahmedabad District, Gujarat, 380060, India",23.125540906915123,72.51428075646483,380060,1:00am - 9:00am
132,"Tragad, Ahmedabad City Taluka, Ahmedabad District, Gujarat, 380019, India",23.1192761,72.5593572,380019,5:00pm - 1:00am
133,"Naroda Road, Sahijpur, Ahmedabad, Ahmedabad City Taluka, Ahmedabad District, Gujarat, 382345, India",23.051881545460382,72.62734048812297,382345,1:00am - 9:00am
134,"Railway Colony, Sabarmati, Ahmedabad, Ahmedabad City Taluka, Ahmedabad District, Gujarat, 380001, India",23.093633861172822,72.58436477575496,380001,9:00am - 5:00pm
135,"D-cabin, Ahmedabad, Ahmedabad City Taluka, Ahmedabad District, Gujarat, 380001, India",23.104047020896036,72.57395958041161,380001,9:00am - 5:00pm
136,"Gandhinagar Taluka, Gandhinagar District, Gujarat, 382428, India",23.11549119971906,72.61457959818824,382428,5:00pm - 1:00am
137,"Sabarmati, Ahmedabad, Ahmedabad City Taluka, Ahmedabad District, Gujarat, 380001, India",23.091761976760548,72.59348475406092,380001,9:00am - 5:00pm
138,"Gandhinagar Taluka, Gandhinagar District, Gujarat, 382424, India",23.125454356204777,72.57045576712558,382424,5:00pm - 1:00am
139,"Ahmedabad, Ahmedabad City Taluka, Ahmedabad District, Gujarat, 380001, India",23.1022238,72.5896472,380001,1:00am - 9:00am
140,"Naranpura, Ahmedabad, Ahmedabad City Taluka, Ahmedabad District, Gujarat, 380001, India",23.049950754067243,72.55482353119898,380001,9:00am - 5:00pm
141,"Airport Service Road, Ambavadi / kubernagar, Ahmedabad, Ahmedabad City Taluka, Ahmedabad District, Gujarat, 380001, India",23.0693475836488,72.63047089292718,380001,9:00am - 5:00pm
142,"Chandkheda, Ahmedabad, Ahmedabad City Taluka, Ahmedabad District, Gujarat, 380001, India",23.1093617483261,72.57923816111756,380001,5:00pm - 1:00am
143,"Gandhinagar Taluka, Gandhinagar District, Gujarat, 382424, India",23.12927473746235,72.60669729994828,382424,1:00am - 9:00am
144,"Ahmedabad, Ahmedabad City Taluka, Ahmedabad District, Gujarat, 380001, India",23.0804524,72.530778,380001,5:00pm - 1:00am
145,"Gandhinagar-Ahmedabad Highway, Gandhinagar Taluka, Gandhinagar District, Gujarat, 382428, India",23.12483471069552,72.63214894863707,382428,1:00am - 9:00am
146,"Bhat, Gandhinagar Taluka, Gandhinagar District, Gujarat, 382428, India",23.109382,72.643801,382428,1:00am - 9:00am
147,"New Ranip, Ahmedabad, Ahmedabad City Taluka, Ahmedabad District, Gujarat, 380001, India",23.090610181304317,72.55289182606968,380001,5:00pm - 1:00am
148,"Gandhinagar Taluka, Gandhinagar District, Gujarat, 382424, India",23.1292818,72.6066505,382424,1:00am - 9:00am
149,"SMS Multi-Speciality Hospital, SH71, Ahmedabad, Ahmedabad City Taluka, Ahmedabad District, Gujarat, 380001, India",23.116983599999998,72.60776230012561,380001,9:00am - 5:00pm
150,"Naroda, Ahmedabad, Ahmedabad City Taluka, Ahmedabad District, Gujarat, 382325, India",23.0847408,72.6473629,382325,9:00am - 5:00pm
151,"Bodakdev, Daskroi Taluka, Ahmedabad District, Gujarat, 380052, India",23.055943729175375,72.52423415972763,380052,9:00am - 5:00pm
152,"Sardar Patel Ring Road, Gandhinagar Taluka, Gandhinagar District, Gujarat, 382428, India",23.11547678447899,72.64693759044209,382428,9:00am - 5:00pm
153,"Airport Service Road, Ambavadi / kubernagar, Ahmedabad, Ahmedabad City Taluka, Ahmedabad District, Gujarat, 380001, India",23.069919656148265,72.62322801003918,380001,1:00am - 9:00am
154,"Ognaj, Daskroi Taluka, Ahmedabad District, Gujarat, 380060, India",23.105859489380784,72.51043267320054,380060,1:00am - 9:00am
155,"Ognaj, Daskroi Taluka, Ahmedabad District, Gujarat, 380060, India",23.11168485782223,72.52656024483245,380060,9:00am - 5:00pm
156,"Meghaninagar, Ahmedabad, Ahmedabad City Taluka, Ahmedabad District, Gujarat, 380001, India",23.0584343468858,72.61642534989322,380001,5:00pm - 1:00am
157,"Apollo Hospitals International Limited, Gandhinagar-Ahmedabad Highway, Bhat, Gandhinagar Taluka, Gandhinagar District, Gujarat, 382428, India",23.10980605,72.6261057807297,382428,5:00pm - 1:00am
158,"Bhat GIDC, Koteshwar Village, Koteshwar, Gandhinagar Taluka, Gandhinagar District, Gujarat, 382428, India",23.095125489162054,72.61223893551947,382428,1:00am - 9:00am
159,"Gota, Chenpur, Daskroi Taluka, Ahmedabad District, Gujarat, 380019, India",23.11311675179176,72.55154329474212,380019,9:00am - 5:00pm
160,"Bhagwat Nagar, Ahmedabad, Ahmedabad City Taluka, Ahmedabad District, Gujarat, 380001, India",23.07003216777816,72.53096771284311,380001,9:00am - 5:00pm
161,"Ashram Road, Usmanpura, Ahmedabad, Ahmedabad City Taluka, Ahmedabad District, Gujarat, 380001, India",23.051023039265804,72.57129231455555,380001,5:00pm - 1:00am
162,"Naroda, Ahmedabad, Ahmedabad City Taluka, Ahmedabad District, Gujarat, 382325, India",23.0816046,72.6488502,382325,9:00am - 5:00pm
163,"International Terminal Road, Ambavadi / kubernagar, Ahmedabad, Ahmedabad City Taluka, Ahmedabad District, Gujarat, 380001, India",23.07728222167099,72.61961923091366,380001,9:00am - 5:00pm
164,"Ahmedabad, Ahmedabad City Taluka, Ahmedabad District, Gujarat, 380001, India",23.113584304478334,72.6002426987298,380001,9:00am - 5:00pm
165,"Gujarat High Court Auditorium, Auditorium Road, Bhagvat, Daskroi Taluka, Ahmedabad District, Gujarat, 380061, India",23.07822105,72.52346966583562,380061,9:00am - 5:00pm
166,"Gandhinagar Taluka, Gandhinagar District, Gujarat, 382428, India",23.123618871199646,72.62493873030378,382428,1:00am - 9:00am
167,"Canal road, Naroda, Ahmedabad, Ahmedabad City Taluka, Ahmedabad District, Gujarat, 382325, India",23.054373640677852,72.65198748667441,382325,5:00pm - 1:00am
168,"Ahmedabad City Taluka, Ahmedabad District, Gujarat, 382424, India",23.120439809268696,72.59099242736062,382424,9:00am - 5:00pm
169,"Gota, Chenpur, Daskroi Taluka, Ahmedabad District, Gujarat, 382481, India",23.10572481612778,72.54783960187085,382481,9:00am - 5:00pm
170,"Naroda, Ahmedabad, Ahmedabad City Taluka, Ahmedabad District, Gujarat, 382325, India",23.08387255396622,72.65249834544836,382325,9:00am - 5:00pm
171,"Koteshwar, Gandhinagar Taluka, Gandhinagar District, Gujarat, 382428, India",23.1037967,72.6180893,382428,1:00am - 9:00am
172,"Memnagar, Ahmedabad, Ahmedabad City Taluka, Ahmedabad District, Gujarat, 380001, India",23.05201426897738,72.53962092560482,380001,9:00am - 5:00pm
173,"Ahmedabad City Taluka, Ahmedabad District, Gujarat, 382424, India",23.12623681122733,72.60209815268996,382424,1:00am - 9:00am
174,"Zydus Hospitals, Service road - Sarkhej Gandhinagar Highway, Bodakdev, Daskroi Taluka, Ahmedabad District, Gujarat, 380054, India",23.0585119,72.51744059224065,380054,5:00pm - 1:00am
175,"NEW JUDGES BUNGALOW ROAD, Ghatlodiya, Ahmedabad, Ahmedabad City Taluka, Ahmedabad District, Gujarat, 380001, India",23.078244643497513,72.52835877689694,380001,1:00am - 9:00am
176,"Ahmedabad, Ahmedabad City Taluka, Ahmedabad District, Gujarat, 380001, India",23.0839673,72.6134754,380001,9:00am - 5:00pm
177,"Gandhinagar Taluka, Gandhinagar District, Gujarat, 382424, India",23.12777567233597,72.61046621833978,382424,9:00am - 5:00pm
178,"Bhagvat, Ognaj, Daskroi Taluka, Ahmedabad District, Gujarat, 380061, India",23.083180268792955,72.5275073334046,380061,9:00am - 5:00pm
179,"Airport Road, Shahibaug, Ahmedabad, Ahmedabad City Taluka, Ahmedabad District, Gujarat, 380001, India",23.079848869215077,72.61240457375975,380001,1:00am - 9:00am
180,"Ghatlodiya, Ahmedabad, Ahmedabad City Taluka, Ahmedabad District, Gujarat, 380001, India",23.085861696616508,72.54357592213098,380001,9:00am - 5:00pm
181,"Ognaj, Daskroi Taluka, Ahmedabad District, Gujarat, 380060, India",23.119669953336253,72.52565397710032,380060,1:00am - 9:00am
182,"Meghaninagar, Ahmedabad, Ahmedabad City Taluka, Ahmedabad District, Gujarat, 380001, India",23.067980870496854,72.60697786946064,380001,5:00pm - 1:00am
183,"Meghaninagar, Ahmedabad, Ahmedabad City Taluka, Ahmedabad District, Gujarat, 380001, India",23.067192470327495,72.61291422942396,380001,5:00pm - 1:00am
184,"Sabarmati Jail Road, Sabarmati, Ahmedabad, Ahmedabad City Taluka, Ahmedabad District, Gujarat, 380001, India",23.07234976551699,72.58666169649317,380001,5:00pm - 1:00am
185,"Daskroi Taluka, Ahmedabad District, Gujarat, 380019, India",23.123902747022083,72.54127434797242,380019,1:00am - 9:00am
186,"Naranpura, Ahmedabad, Ahmedabad City Taluka, Ahmedabad District, Gujarat, 380001, India",23.0554825,72.549895,380001,9:00am - 5:00pm
187,"Motera- chandkheda road, Sabarmati, Ahmedabad, Ahmedabad City Taluka, Ahmedabad District, Gujarat, 380001, India",23.0783598,72.5952852,380001,9:00am - 5:00pm
188,"APRON 1, Domestic Airport Road, Ambavadi / kubernagar, Ahmedabad, Ahmedabad City Taluka, Ahmedabad District, Gujarat, 380001, India",23.0719343,72.6172264799803,380001,5:00pm - 1:00am
189,"Thaltej, Daskroi Taluka, Ahmedabad District, Gujarat, 380059, India",23.051669011556836,72.51315087441283,380059,9:00am - 5:00pm
190,"Ambavadi / kubernagar, Ahmedabad, Ahmedabad City Taluka, Ahmedabad District, Gujarat, 380001, India",23.08770128658374,72.62939007004599,380001,9:00am - 5:00pm
191,"Hansol, Ambavadi / kubernagar, Ahmedabad, Ahmedabad City Taluka, Ahmedabad District, Gujarat, 380001, India",23.08245018607146,72.61979348618006,380001,5:00pm - 1:00am
192,"Ahmedabad, Ahmedabad City Taluka, Ahmedabad District, Gujarat, 380001, India",23.114360193526664,72.5616106112838,380001,1:00am - 9:00am
193,"New Ranip, Ahmedabad, Ahmedabad City Taluka, Ahmedabad District, Gujarat, 380001, India",23.0911831,72.5676799,380001,9:00am - 5:00pm
194,"New Ranip, Ahmedabad, Ahmedabad City Taluka, Ahmedabad District, Gujarat, 380001, India",23.091104333737448,72.5532446970924,380001,5:00pm - 1:00am
195,"Sabarmati, Ahmedabad, Ahmedabad City Taluka, Ahmedabad District, Gujarat, 380001, India",23.079874890121534,72.58749592451251,380001,5:00pm - 1:00am
196,"Sola, Daskroi Taluka, Ahmedabad District, Gujarat, 380060, India",23.08481148724126,72.50987173347471,380060,1:00am - 9:00am
197,"Kalapi nagar, Ahmedabad, Ahmedabad City Taluka, Ahmedabad District, Gujarat, 380001, India",23.052510439944232,72.61617948061563,380001,9:00am - 5:00pm
198,"Tapovan Sanskar Peeth, Sardar Patel Ring Road, Gandhinagar Taluka, Gandhinagar District, Gujarat, 382424, India",23.12488025,72.61329833862106,382424,5:00pm - 1:00am
199,"Ranip, Ahmedabad, Ahmedabad City Taluka, Ahmedabad District, Gujarat, 380001, India",23.078385641976766,72.56963882698109,380001,9:00am - 5:00pm
200,"Gota, Daskroi Taluka, Ahmedabad District, Gujarat, 382481, India",23.1097237,72.5418556,382481,9:00am - 5:00pm
201,"New Ranip, Ahmedabad, Ahmedabad City Taluka, Ahmedabad District, Gujarat, 380001, India",23.091412806441607,72.5626678943033,380001,1:00am - 9:00am
202,"Tragad, Ahmedabad City Taluka, Ahmedabad District, Gujarat, 380019, India",23.127047080021057,72.5564641340918,380019,9:00am - 5:00pm
203,"Meghaninagar, Ahmedabad, Ahmedabad City Taluka, Ahmedabad District, Gujarat, 380001, India",23.06048091402334,72.61259790951213,380001,1:00am - 9:00am
204,"Ghatlodiya, Ahmedabad, Ahmedabad City Taluka, Ahmedabad District, Gujarat, 380001, India",23.077290882624713,72.55591209558284,380001,5:00pm - 1:00am
205,"Ambavadi / kubernagar, Ahmedabad, Ahmedabad City Taluka, Ahmedabad District, Gujarat, 380001, India",23.073228713192513,72.6349964154743,380001,9:00am - 5:00pm
206,"J.V.Park, CHANDLODIA STATION ROAD, Ghatlodiya, Ahmedabad, Ahmedabad City Taluka, Ahmedabad District, Gujarat, 382480, India",23.08486955,72.56951263203054,382480,9:00am - 5:00pm
207,"Shahibaug, Ahmedabad, Ahmedabad City Taluka, Ahmedabad District, Gujarat, 380001, India",23.06340877988019,72.60395451324672,380001,1:00am - 9:00am
208,"Gota, Ognaj, Daskroi Taluka, Ahmedabad District, Gujarat, 380060, India",23.110975154807882,72.52816644187844,380060,9:00am - 5:00pm
209,"Ahmedabad, Ahmedabad City Taluka, Ahmedabad District, Gujarat, 380001, India",23.11126574260275,72.60404069470185,380001,1:00am - 9:00am
210,"Akhbar nagar, Ahmedabad, Ahmedabad City Taluka, Ahmedabad District, Gujarat, 380001, India",23.062748561674358,72.56944733130882,380001,1:00am - 9:00am
211,"Bhagwat Nagar, Ahmedabad, Ahmedabad City Taluka, Ahmedabad District, Gujarat, 380001, India",23.0590666399762,72.53521485344145,380001,1:00am - 9:00am
212,"Sabarmati Riverfront Walkway, Dudheshwar, Ahmedabad, Ahmedabad City Taluka, Ahmedabad District, Gujarat, 380001, India",23.061873830531663,72.58981750605872,380001,1:00am - 9:00am
213,"Bhat GIDC, Bhat, Koteshwar, Gandhinagar Taluka, Gandhinagar District, Gujarat, 382428, India",23.099222490005186,72.62231390508397,382428,5:00pm - 1:00am
214,"Ahmedabad Airport Domestic Terminal, Domestic Airport Road, Ambavadi / kubernagar, Ahmedabad, Ahmedabad City Taluka, Ahmedabad District, Gujarat, 380001, India",23.07191385,72.6197209534293,380001,1:00am - 9:00am
215,"Ambavadi / kubernagar, Ahmedabad, Ahmedabad City Taluka, Ahmedabad District, Gujarat, 380001, India",23.0803234,72.6430667,380001,5:00pm - 1:00am
216,"Ahmedabad, Ahmedabad City Taluka, Ahmedabad District, Gujarat, 380001, India",23.1156147,72.6187357,380001,1:00am - 9:00am
217,"Gandhinagar-Ahmedabad Highway, Bhat, Gandhinagar Taluka, Gandhinagar District, Gujarat, 382428, India",23.110955392882534,72.63065477109545,382428,9:00am - 5:00pm
218,"Railway Colony, Sabarmati, Ahmedabad, Ahmedabad City Taluka, Ahmedabad District, Gujarat, 380001, India",23.09593652330338,72.57978262324646,380001,1:00am - 9:00am
219,"Memnagar, Ahmedabad, Ahmedabad City Taluka, Ahmedabad District, Gujarat, 380001, India",23.053514560068685,72.52682552544535,380001,9:00am - 5:00pm
220,"Khodiyar Nagar, Karmachari Nagar, Ahmedabad, Ahmedabad City Taluka, Ahmedabad District, Gujarat, 380001, India",23.070021751633295,72.54110164057198,380001,5:00pm - 1:00am
221,"Bhagvat, Daskroi Taluka, Ahmedabad District, Gujarat, 380060, India",23.077292617158825,72.52021026284774,380060,9:00am - 5:00pm
222,"Meghaninagar, Ahmedabad, Ahmedabad City Taluka, Ahmedabad District, Gujarat, 380001, India",23.055925718759134,72.61891382499077,380001,9:00am - 5:00pm
223,"New Ranip, Ahmedabad, Ahmedabad City Taluka, Ahmedabad District, Gujarat, 380001, India",23.10685778347975,72.56458250822737,380001,5:00pm - 1:00am
224,"Daskroi Taluka, Ahmedabad District, Gujarat, 380060, India",23.125293236908078,72.51341084267428,380060,5:00pm - 1:00am
225,"Dudheshwar, Ahmedabad, Ahmedabad City Taluka, Ahmedabad District, Gujarat, 380001, India",23.0592569,72.5757667,380001,5:00pm - 1:00am
226,"Gota, Chenpur, Daskroi Taluka, Ahmedabad District, Gujarat, 382481, India",23.097600253183334,72.54593543592664,382481,1:00am - 9:00am
227,"Ranip, Ahmedabad, Ahmedabad City Taluka, Ahmedabad District, Gujarat, 380001, India",23.07487226432014,72.57949500802347,380001,5:00pm - 1:00am
228,"Shahibaug, Ahmedabad, Ahmedabad City Taluka, Ahmedabad District, Gujarat, 380001, India",23.066195154251186,72.60176708818224,380001,9:00am - 5:00pm
229,"Ognaj, Daskroi Taluka, Ahmedabad District, Gujarat, 380060, India",23.11967445709267,72.52555488305723,380060,5:00pm - 1:00am
230,"Gandhinagar Taluka, Gandhinagar District, Gujarat, 382424, India",23.127572714588737,72.60969977531515,382424,5:00pm - 1:00am
231,"Nava-Vadaj, Ahmedabad, Ahmedabad City Taluka, Ahmedabad District, Gujarat, 380001, India",23.063987190886028,72.56994105236637,380001,9:00am - 5:00pm
232,"Gota, Ognaj, Daskroi Taluka, Ahmedabad District, Gujarat, 380060, India",23.109470076105072,72.5285923824467,380060,1:00am - 9:00am
233,"Gota, Ognaj, Daskroi Taluka, Ahmedabad District, Gujarat, 380060, India",23.106018069017704,72.52857129806803,380060,5:00pm - 1:00am
234,"Naroda, Ahmedabad, Ahmedabad City Taluka, Ahmedabad District, Gujarat, 382325, India",23.062508823080094,72.64807049566305,382325,9:00am - 5:00pm
235,"Airport Service Road, Sahijpur boga, Ahmedabad, Ahmedabad City Taluka, Ahmedabad District, Gujarat, 380001, India",23.062404025685538,72.62214233919474,380001,9:00am - 5:00pm
236,"Asarwa, Ahmedabad, Ahmedabad City Taluka, Ahmedabad District, Gujarat, 380001, India",23.051360798390956,72.61122466102829,380001,9:00am - 5:00pm
237,"Ahmedabad, Ahmedabad City Taluka, Ahmedabad District, Gujarat, 380001, India",23.1148512,72.6187101,380001,5:00pm - 1:00am
238,"Bhat GIDC, Bhat, Koteshwar, Gandhinagar Taluka, Gandhinagar District, Gujarat, 382428, India",23.099943559936953,72.62652947968299,382428,9:00am - 5:00pm
239,"Ognaj, Daskroi Taluka, Ahmedabad District, Gujarat, 380060, India",23.106345802582073,72.51683324089525,380060,5:00pm - 1:00am
240,"Ghatlodiya, Ahmedabad, Ahmedabad City Taluka, Ahmedabad District, Gujarat, 380001, India",23.07397564656627,72.55498447866592,380001,5:00pm - 1:00am
241,"Gota, Chenpur, Daskroi Taluka, Ahmedabad District, Gujarat, 382481, India",23.109835214064184,72.5492760088523,382481,1:00am - 9:00am
242,"Koteshwar, Gandhinagar Taluka, Gandhinagar District, Gujarat, 382428, India",23.09957811397262,72.61785661071764,382428,5:00pm - 1:00am
243,"Ahmedabad, Ahmedabad City Taluka, Ahmedabad District, Gujarat, 380001, India",23.09793627044015,72.5982123104708,380001,5:00pm - 1:00am
244,"Vishwakarma Government Engineering College, Chandkheda, SH71, Ahmedabad, Ahmedabad City Taluka, Ahmedabad District, Gujarat, 382424, India",23.106061750000002,72.59448303974892,382424,1:00am - 9:00am
245,"Gandhinagar Taluka, Gandhinagar District, Gujarat, 382428, India",23.120397830608116,72.63214147160575,382428,1:00am - 9:00am
246,"Naroda, Ahmedabad, Ahmedabad City Taluka, Ahmedabad District, Gujarat, 382325, India",23.0652683,72.6435843,382325,5:00pm - 1:00am
247,"PayalPark society Road, Sahijpur, Ahmedabad, Ahmedabad City Taluka, Ahmedabad District, Gujarat, 382345, India",23.05440733514728,72.63922101944803,382345,5:00pm - 1:00am
248,"Hansol, Ambavadi / kubernagar, Ahmedabad, Ahmedabad City Taluka, Ahmedabad District, Gujarat, 380001, India",23.078889908177214,72.6290985109656,380001,5:00pm - 1:00am
249,"Ahmedabad, Ahmedabad City Taluka, Ahmedabad District, Gujarat, 380001, India",23.10311736744316,72.60816403193951,380001,1:00am - 9:00am
250,"Nidhi Appartment, Naranpura, Ahmedabad, Ahmedabad City Taluka, Ahmedabad District, Gujarat, 380001, India",23.062645641201012,72.55262590231364,380001,1:00am - 9:00am
251,"Gota, Ognaj, Daskroi Taluka, Ahmedabad District, Gujarat, 382481, India",23.112850977429783,72.5383092100624,382481,1:00am - 9:00am
252,"Ahmedabad, Ahmedabad City Taluka, Ahmedabad District, Gujarat, 380001, India",23.087177224927448,72.65479633423422,380001,5:00pm - 1:00am
253,"Meghaninagar, Ahmedabad, Ahmedabad City Taluka, Ahmedabad District, Gujarat, 380001, India",23.057121432254537,72.61643630171382,380001,9:00am - 5:00pm
254,"Daskroi Taluka, Ahmedabad District, Gujarat, 380061, India",23.062308717964434,72.52554991796208,380061,1:00am - 9:00am
255,"Nirnay Nagar, Ahmedabad, Ahmedabad City Taluka, Ahmedabad District, Gujarat, 380001, India",23.07046253631679,72.55638968282246,380001,5:00pm - 1:00am
256,"Asarwa Road, Kalapi nagar, Ahmedabad, Ahmedabad City Taluka, Ahmedabad District, Gujarat, 380001, India",23.050342793991668,72.62016491821309,380001,9:00am - 5:00pm
257,"Ahmedabad, Ahmedabad City Taluka, Ahmedabad District, Gujarat, 380001, India",23.078317402650974,72.5319437441189,380001,5:00pm - 1:00am
258,"Thakkarabapa Nagar, Ahmedabad, Ahmedabad City Taluka, Ahmedabad District, Gujarat, 380001, India",23.053045951028185,72.64790367088291,380001,5:00pm - 1:00am
259,"Shahibaug, Ahmedabad, Ahmedabad City Taluka, Ahmedabad District, Gujarat, 380001, India",23.06154316684207,72.60269227601246,380001,9:00am - 5:00pm
260,"Bhat GIDC, Bhat, Koteshwar, Gandhinagar Taluka, Gandhinagar District, Gujarat, 382428, India",23.098683103801278,72.61807527848323,382428,9:00am - 5:00pm
261,"Ognaj, Daskroi Taluka, Ahmedabad District, Gujarat, 380060, India",23.119689577467422,72.52230205425371,380060,9:00am - 5:00pm
262,"Sahijpur, Ahmedabad, Ahmedabad City Taluka, Ahmedabad District, Gujarat, 382345, India",23.055367525543346,72.63476939942396,382345,5:00pm - 1:00am
263,"New Ranip, Ahmedabad, Ahmedabad City Taluka, Ahmedabad District, Gujarat, 380001, India",23.094071499491818,72.57042486893698,380001,1:00am - 9:00am
264,"Sahijpur boga, Ahmedabad, Ahmedabad City Taluka, Ahmedabad District, Gujarat, 380001, India",23.0641312,72.6309371,380001,5:00pm - 1:00am
265,"Khodiyar Nagar, Karmachari Nagar, Ahmedabad, Ahmedabad City Taluka, Ahmedabad District, Gujarat, 380001, India",23.06471704011333,72.53625378772516,380001,9:00am - 5:00pm
266,"Karmachari Nagar, Ahmedabad, Ahmedabad City Taluka, Ahmedabad District, Gujarat, 380001, India",23.0730092,72.53213,380001,9:00am - 5:00pm
267,"Tragad, Ahmedabad City Taluka, Ahmedabad District, Gujarat, 380019, India",23.121859513395066,72.55647348032154,380019,1:00am - 9:00am
268,"Tragad, Ahmedabad City Taluka, Ahmedabad District, Gujarat, 380019, India",23.130949771452485,72.55859104602287,380019,9:00am - 5:00pm
269,"Sardar Patel National Memorial, Airport Road, Shahibaug, Ahmedabad, Ahmedabad City Taluka, Ahmedabad District, Gujarat, 380001, India",23.0609073,72.59091218379785,380001,1:00am - 9:00am
270,"Naroda Road, Sahijpur, Ahmedabad, Ahmedabad City Taluka, Ahmedabad District, Gujarat, 382345, India",23.048686256504364,72.62247019467138,382345,9:00am - 5:00pm
271,"Chanakyapuri, Daskroi Taluka, Ahmedabad District, Gujarat, 382481, India",23.085849231984014,72.53538622345359,382481,5:00pm - 1:00am
272,"Naroda, Ahmedabad, Ahmedabad City Taluka, Ahmedabad District, Gujarat, 382325, India",23.085618653849412,72.64989639738103,382325,1:00am - 9:00am
273,"Gandhinagar Taluka, Gandhinagar District, Gujarat, 382428, India",23.1028912,72.6513742,382428,5:00pm - 1:00am
274,"Kalapi nagar, Ahmedabad, Ahmedabad City Taluka, Ahmedabad District, Gujarat, 380001, India",23.054160079109266,72.62286482122012,380001,5:00pm - 1:00am
275,"Darya Khan tomb, Dariyakhan Gumaj road, Dudheshwar, Ahmedabad, Ahmedabad City Taluka, Ahmedabad District, Gujarat, 380001, India",23.0526177,72.5866876,380001,9:00am - 5:00pm
276,"D-cabin, Ahmedabad, Ahmedabad City Taluka, Ahmedabad District, Gujarat, 380001, India",23.102093811933635,72.57409026973576,380001,5:00pm - 1:00am
277,"Ghatlodiya, Ahmedabad, Ahmedabad City Taluka, Ahmedabad District, Gujarat, 380001, India",23.072276564452658,72.5498256089779,380001,1:00am - 9:00am
278,"Godrej Garden city Road, Gota, Chenpur, Daskroi Taluka, Ahmedabad District, Gujarat, 382470, India",23.10576049537473,72.55400587410699,382470,1:00am - 9:00am
279,"Chandkheda, Ahmedabad, Ahmedabad City Taluka, Ahmedabad District, Gujarat, 380001, India",23.111060268353416,72.58369070092452,380001,5:00pm - 1:00am
280,"Ghatlodiya, Ahmedabad, Ahmedabad City Taluka, Ahmedabad District, Gujarat, 380001, India",23.0774169,72.5413673,380001,5:00pm - 1:00am
281,"Navrangpura Internal Road, Akhbar nagar, Navrangpura, Ahmedabad City Taluka, Ahmedabad District, Gujarat, 380013, India",23.060589631699727,72.56128150068425,380013,5:00pm - 1:00am
282,"Gota, Ognaj, Daskroi Taluka, Ahmedabad District, Gujarat, 380060, India",23.1073304,72.5271785,380060,5:00pm - 1:00am
283,"Sabarmati Riverfront Promenade, Ranna Park, Ahmedabad, Ahmedabad City Taluka, Ahmedabad District, Gujarat, 380001, India",23.073376389644483,72.59777657345617,380001,5:00pm - 1:00am
284,"Thaltej, Daskroi Taluka, Ahmedabad District, Gujarat, 380059, India",23.05532991424671,72.51115673802492,380059,9:00am - 5:00pm
285,"Bhat, Koteshwar, Gandhinagar Taluka, Gandhinagar District, Gujarat, 382428, India",23.106343734086312,72.62066824918047,382428,5:00pm - 1:00am
286,"Sardar Patel Ring Road, Ahmedabad City Taluka, Ahmedabad District, Gujarat, 382424, India",23.124131451614755,72.60292048675815,382424,9:00am - 5:00pm
287,"Tragad, Ahmedabad City Taluka, Ahmedabad District, Gujarat, 380019, India",23.123454506136174,72.56520236469564,380019,9:00am - 5:00pm
288,"Gota, Chenpur, Daskroi Taluka, Ahmedabad District, Gujarat, 382481, India",23.11306681250433,72.55360358966657,382481,1:00am - 9:00am
289,"Naroda, Ahmedabad, Ahmedabad City Taluka, Ahmedabad District, Gujarat, 382325, India",23.085865579767567,72.65183714241523,382325,9:00am - 5:00pm
290,"Dudheshwar, Ahmedabad, Ahmedabad City Taluka, Ahmedabad District, Gujarat, 380001, India",23.064818352929233,72.58823595504252,380001,9:00am - 5:00pm
291,"Gota, Ognaj, Daskroi Taluka, Ahmedabad District, Gujarat, 380060, India",23.105738570164235,72.53064517581585,380060,1:00am - 9:00am
292,"Bhagvat, Daskroi Taluka, Ahmedabad District, Gujarat, 380060, India",23.090042413892206,72.52770666926322,380060,9:00am - 5:00pm
293,"Gota, Chenpur, Daskroi Taluka, Ahmedabad District, Gujarat, 380019, India",23.1187682,72.5436641,380019,1:00am - 9:00am
294,"Sardar Patel Ring Road, Bhat, Gandhinagar Taluka, Gandhinagar District, Gujarat, 382428, India",23.115449935376088,72.65079273124806,382428,1:00am - 9:00am
295,"Khodiyar Nagar, Karmachari Nagar, Ahmedabad, Ahmedabad City Taluka, Ahmedabad District, Gujarat, 380001, India",23.06716646424982,72.53718161903632,380001,5:00pm - 1:00am
296,"Meghaninagar, Ahmedabad, Ahmedabad City Taluka, Ahmedabad District, Gujarat, 380001, India",23.061990041288368,72.62767016758056,380001,1:00am - 9:00am
297,"Sabarmati Riverfront Promenade, Ranna Park, Ahmedabad, Ahmedabad City Taluka, Ahmedabad District, Gujarat, 380001, India",23.06153087897356,72.58337909472995,380001,9:00am - 5:00pm
298,"Gandhinagar Taluka, Gandhinagar District, Gujarat, 382428, India",23.117370433328627,72.6245228061249,382428,1:00am - 9:00am
299,"Sahijpur boga, Ahmedabad, Ahmedabad City Taluka, Ahmedabad District, Gujarat, 380001, India",23.05698539043785,72.64207888236446,380001,1:00am - 9:00am
300,"Bhagwat Nagar, Ahmedabad, Ahmedabad City Taluka, Ahmedabad District, Gujarat, 380001, India",23.062595719772315,72.52917478005618,380001,1:00am - 9:00am
301,"Memnagar, Ahmedabad, Ahmedabad City Taluka, Ahmedabad District, Gujarat, 380001, India",23.050741379599483,72.52722531612487,380001,9:00am - 5:00pm
302,"Ghatlodiya, Ahmedabad, Ahmedabad City Taluka, Ahmedabad District, Gujarat, 380001, India",23.072033987515297,72.54640895722444,380001,1:00am - 9:00am
303,"St. Xavier's School, Loyola Hall, Navrangpura, St. Xavier's School Road, Naranpura, Ahmedabad, Ahmedabad City Taluka, Ahmedabad District, Gujarat, 380001, India",23.0484821,72.54900607250224,380001,5:00pm - 1:00am
304,"Udgam School for Children, Drive-in Road, Memnagar, Ahmedabad, Daskroi Taluka, Ahmedabad District, Gujarat, 380001, India",23.0502712,72.51933931487055,380001,1:00am - 9:00am
305,"SWA Bungalows, Ahmedabad City Taluka, Ahmedabad District, Gujarat, 382424, India",23.1188229,72.6087342,382424,9:00am - 5:00pm
306,"Bhagvat, Ognaj, Daskroi Taluka, Ahmedabad District, Gujarat, 380060, India",23.095380475248618,72.51600462823481,380060,9:00am - 5:00pm
307,"New Science City Road, Bhagvat, Ognaj, Daskroi Taluka, Ahmedabad District, Gujarat, 380060, India",23.1004333541157,72.51577886359374,380060,9:00am - 5:00pm
308,"Ghatlodiya, Ahmedabad, Ahmedabad City Taluka, Ahmedabad District, Gujarat, 380001, India",23.076705365268786,72.54999105938568,380001,5:00pm - 1:00am
309,"Daskroi Taluka, Ahmedabad District, Gujarat, 380019, India",23.127408082104548,72.53264788025189,380019,5:00pm - 1:00am
310,"Bhagwat Nagar, Ahmedabad, Ahmedabad City Taluka, Ahmedabad District, Gujarat, 380001, India",23.069907241020587,72.531233433662,380001,5:00pm - 1:00am
311,"Ahmedabad, Ahmedabad City Taluka, Ahmedabad District, Gujarat, 380001, India",23.0883727,72.5392807,380001,1:00am - 9:00am
312,"Gujarat Housing Board, Pragatinagar, Nirnay Nagar, Ahmedabad, Ahmedabad City Taluka, Ahmedabad District, Gujarat, 380013, India",23.063875,72.55547310483522,380013,5:00pm - 1:00am
313,"Bhat, Gandhinagar Taluka, Gandhinagar District, Gujarat, 382428, India",23.115102832414475,72.64403195869197,382428,1:00am - 9:00am
314,"Kotarpur, Airport Road, Ahmedabad, Ahmedabad City Taluka, Ahmedabad District, Gujarat, 380001, India",23.09402745,72.6533733,380001,1:00am - 9:00am
315,"Ognaj, Daskroi Taluka, Ahmedabad District, Gujarat, 380060, India",23.109083899827862,72.51560150550473,380060,5:00pm - 1:00am
316,"APRON 1, Domestic Airport Road, Ambavadi / kubernagar, Ahmedabad, Ahmedabad City Taluka, Ahmedabad District, Gujarat, 380001, India",23.0719343,72.6172264799803,380001,9:00am - 5:00pm
317,"Tragad, Ahmedabad City Taluka, Ahmedabad District, Gujarat, 380019, India",23.128999326756777,72.55954505522786,380019,9:00am - 5:00pm
318,"Sabarmati, Ahmedabad, Ahmedabad City Taluka, Ahmedabad District, Gujarat, 380001, India",23.087636635718074,72.59601153544864,380001,1:00am - 9:00am
319,"Ognaj, Daskroi Taluka, Ahmedabad District, Gujarat, 380060, India",23.113402414545973,72.51729332491361,380060,1:00am - 9:00am
320,"Sola, Daskroi Taluka, Ahmedabad District, Gujarat, 380061, India",23.07659000173808,72.52091689688412,380061,9:00am - 5:00pm
321,"Gandhinagar Taluka, Gandhinagar District, Gujarat, 382424, India",23.1244164,72.579618,382424,5:00pm - 1:00am
322,"Ahmedabad, Ahmedabad City Taluka, Ahmedabad District, Gujarat, 380001, India",23.11542502417729,72.59740723276464,380001,9:00am - 5:00pm
323,"Nirnay Nagar, Ahmedabad, Ahmedabad City Taluka, Ahmedabad District, Gujarat, 380001, India",23.07233371161633,72.55140451852152,380001,9:00am - 5:00pm
324,"Sabarmati, Ahmedabad, Ahmedabad City Taluka, Ahmedabad District, Gujarat, 380001, India",23.08730222029268,72.58646342971473,380001,1:00am - 9:00am
325,"Manorama Garden, Airport Road, Ambavadi / kubernagar, Ahmedabad, Ahmedabad City Taluka, Ahmedabad District, Gujarat, 380001, India",23.0897351,72.63917306274732,380001,9:00am - 5:00pm
326,"Koteshwar, Gandhinagar Taluka, Gandhinagar District, Gujarat, 382428, India",23.1037967,72.6180893,382428,1:00am - 9:00am
327,"Ognaj, Daskroi Taluka, Ahmedabad District, Gujarat, 380060, India",23.12103991928999,72.51172750463428,380060,1:00am - 9:00am
328,"Ahmedabad, Ahmedabad City Taluka, Ahmedabad District, Gujarat, 380001, India",23.1131256,72.617915,380001,9:00am - 5:00pm
329,"Shahibaug, Ahmedabad, Ahmedabad City Taluka, Ahmedabad District, Gujarat, 380001, India",23.05529137215468,72.60026051574056,380001,9:00am - 5:00pm
330,"Daskroi Taluka, Ahmedabad District, Gujarat, 380019, India",23.1204575,72.5403091,380019,9:00am - 5:00pm
331,"Thaltej, Daskroi Taluka, Ahmedabad District, Gujarat, 380059, India",23.0567997921084,72.51203327941529,380059,9:00am - 5:00pm
332,"Ghatlodiya, Ahmedabad, Ahmedabad City Taluka, Ahmedabad District, Gujarat, 380001, India",23.079928900298842,72.54496617130067,380001,1:00am - 9:00am
333,"Ahmedabad, Ahmedabad City Taluka, Ahmedabad District, Gujarat, 380001, India",23.107141063637005,72.6117464822976,380001,9:00am - 5:00pm
334,"Ognaj, Daskroi Taluka, Ahmedabad District, Gujarat, 380060, India",23.107067254307843,72.51677927749917,380060,5:00pm - 1:00am
335,"Ognaj, Daskroi Taluka, Ahmedabad District, Gujarat, 380060, India",23.11504673597431,72.51447535695993,380060,9:00am - 5:00pm
336,"Ahmedabad, Ahmedabad City Taluka, Ahmedabad District, Gujarat, 380001, India",23.08103947299763,72.53071735907253,380001,1:00am - 9:00am
337,"Nava-Vadaj, Ahmedabad, Ahmedabad City Taluka, Ahmedabad District, Gujarat, 380001, India",23.070130444531085,72.56602673683791,380001,5:00pm - 1:00am
338,"Hansol, Ambavadi / kubernagar, Ahmedabad, Ahmedabad City Taluka, Ahmedabad District, Gujarat, 380001, India",23.07941649856942,72.62563875612192,380001,9:00am - 5:00pm
339,"Sabarmati Riverfront Promenade, Ranna Park, Ahmedabad, Ahmedabad City Taluka, Ahmedabad District, Gujarat, 380001, India",23.07073023169356,72.59630242568961,380001,1:00am - 9:00am
340,"Thakkarabapa Nagar, Ahmedabad, Ahmedabad City Taluka, Ahmedabad District, Gujarat, 380001, India",23.049332579338227,72.6507281371156,380001,1:00am - 9:00am
341,"Koteshwar Mahadev Temple / Mandir, Asharam ashram road, Ahmedabad, Ahmedabad City Taluka, Ahmedabad District, Gujarat, 380001, India",23.094619,72.61194155740029,380001,9:00am - 5:00pm
342,"Sabarmati Riverfront Promenade, Ranna Park, Ahmedabad, Ahmedabad City Taluka, Ahmedabad District, Gujarat, 380001, India",23.072678037977617,72.59744179039177,380001,1:00am - 9:00am
343,"Bhagvat, Ognaj, Daskroi Taluka, Ahmedabad District, Gujarat, 380060, India",23.097462140785282,72.51357432943858,380060,9:00am - 5:00pm
344,"Gandhinagar Taluka, Gandhinagar District, Gujarat, 382428, India",23.12286445567519,72.61080220347013,382428,9:00am - 5:00pm
345,"Railway Colony, Sabarmati, Ahmedabad, Ahmedabad City Taluka, Ahmedabad District, Gujarat, 380001, India",23.0887281,72.5790999,380001,1:00am - 9:00am
346,"Gota, Ognaj, Daskroi Taluka, Ahmedabad District, Gujarat, 380060, India",23.106337871489014,72.53175786550467,380060,1:00am - 9:00am
347,"Thaltej, Daskroi Taluka, Ahmedabad District, Gujarat, 380059, India",23.054280347745507,72.51382574334548,380059,5:00pm - 1:00am
348,"Chandkheda, Ahmedabad, Ahmedabad City Taluka, Ahmedabad District, Gujarat, 380001, India",23.104660677206294,72.57875466185581,380001,1:00am - 9:00am
349,"Naroda, Ahmedabad, Ahmedabad City Taluka, Ahmedabad District, Gujarat, 382325, India",23.0821561,72.6468962,382325,1:00am - 9:00am
350,"Daskroi Taluka, Ahmedabad District, Gujarat, 380019, India",23.127430830940686,72.53151411371697,380019,1:00am - 9:00am
351,"Sardar Patel Sports Complex, Motera Stadium Entry Road, Sabarmati, Ahmedabad, Ahmedabad City Taluka, Ahmedabad District, Gujarat, 380001, India",23.09269475,72.59783578302674,380001,9:00am - 5:00pm
352,"SG Highway, Bhagvat, Daskroi Taluka, Ahmedabad District, Gujarat, 380061, India",23.0726777752602,72.52414452904526,380061,9:00am - 5:00pm
353,"Avichal Park, Chandkheda, Ahmedabad, Ahmedabad City Taluka, Ahmedabad District, Gujarat, 380001, India",23.117841173390662,72.57827430701072,380001,5:00pm - 1:00am
354,"SH71, Ahmedabad, Ahmedabad City Taluka, Ahmedabad District, Gujarat, 380001, India",23.11850278501511,72.61389200065678,380001,9:00am - 5:00pm
355,"Gota, Daskroi Taluka, Ahmedabad District, Gujarat, 382481, India",23.102088385412983,72.54447603705523,382481,9:00am - 5:00pm
356,"Meghaninagar, Ahmedabad, Ahmedabad City Taluka, Ahmedabad District, Gujarat, 380001, India",23.05651887718134,72.60813592234584,380001,1:00am - 9:00am
357,"Karmachari Nagar, Ahmedabad, Ahmedabad City Taluka, Ahmedabad District, Gujarat, 380001, India",23.072458234463554,72.53846521865032,380001,1:00am - 9:00am
358,"Chandkheda, Ahmedabad, Ahmedabad City Taluka, Ahmedabad District, Gujarat, 380001, India",23.118455438447956,72.57523059931577,380001,1:00am - 9:00am
359,"Koteshwar Mahadev Temple / Mandir, Asharam ashram road, Ahmedabad, Ahmedabad City Taluka, Ahmedabad District, Gujarat, 380001, India",23.094619,72.61194155740029,380001,5:00pm - 1:00am
360,"River Front Walkway, Dudheshwar, Ahmedabad, Ahmedabad City Taluka, Ahmedabad District, Gujarat, 380001, India",23.057478818706656,72.58240700045113,380001,5:00pm - 1:00am
361,"Bhat, Gandhinagar Taluka, Gandhinagar District, Gujarat, 382428, India",23.1181442496596,72.64348600768813,382428,1:00am - 9:00am
362,"Gandhinagar Taluka, Gandhinagar District, Gujarat, 382424, India",23.123392593680922,72.57620759517837,382424,9:00am - 5:00pm
363,"New Ranip, Ahmedabad, Ahmedabad City Taluka, Ahmedabad District, Gujarat, 380001, India",23.0971844,72.5655395,380001,1:00am - 9:00am
364,"Ghatlodiya, Ahmedabad, Ahmedabad City Taluka, Ahmedabad District, Gujarat, 380001, India",23.078468414688153,72.54114399159336,380001,9:00am - 5:00pm
365,"Tragad, Ahmedabad City Taluka, Ahmedabad District, Gujarat, 380019, India",23.12007,72.5589494,380019,9:00am - 5:00pm
366,"Bhagvat, Daskroi Taluka, Ahmedabad District, Gujarat, 380060, India",23.086469128510434,72.5142510346218,380060,9:00am - 5:00pm
367,"Ahmedabad, Ahmedabad City Taluka, Ahmedabad District, Gujarat, 380001, India",23.109094557820566,72.56153216613156,380001,1:00am - 9:00am
368,"Manorama Garden, Airport Road, Ambavadi / kubernagar, Ahmedabad, Ahmedabad City Taluka, Ahmedabad District, Gujarat, 380001, India",23.0897351,72.63917306274732,380001,9:00am - 5:00pm
369,"SH71, Gandhinagar Taluka, Gandhinagar District, Gujarat, 382428, India",23.121586625845982,72.61772891269634,382428,9:00am - 5:00pm
370,"Sabarmati, Ahmedabad, Ahmedabad City Taluka, Ahmedabad District, Gujarat, 380001, India",23.077910518179976,72.58392270181689,380001,9:00am - 5:00pm
371,"Sabarmati 'F' Cabin, CHANDLODIA STATION ROAD, Ghatlodiya, Ahmedabad, Ahmedabad City Taluka, Ahmedabad District, Gujarat, 380001, India",23.086253,72.5715343,380001,1:00am - 9:00am
372,"Sahijpur, Ahmedabad, Ahmedabad City Taluka, Ahmedabad District, Gujarat, 382345, India",23.056569746841596,72.63728525482448,382345,9:00am - 5:00pm
373,"Airport Road, Shahibaug, Ahmedabad, Ahmedabad City Taluka, Ahmedabad District, Gujarat, 380001, India",23.068422856995294,72.601541661261,380001,5:00pm - 1:00am
374,"Ambavadi / kubernagar, Ahmedabad, Ahmedabad City Taluka, Ahmedabad District, Gujarat, 380001, India",23.076120644092377,72.63924970524587,380001,1:00am - 9:00am
375,"Memnagar, Ahmedabad, Ahmedabad City Taluka, Ahmedabad District, Gujarat, 380001, India",23.0514034060874,72.5289104026469,380001,9:00am - 5:00pm
376,"Daskroi Taluka, Ahmedabad District, Gujarat, 380061, India",23.060062232866628,72.5275640819579,380061,5:00pm - 1:00am
377,"Meghaninagar, Ahmedabad, Ahmedabad City Taluka, Ahmedabad District, Gujarat, 380001, India",23.06801335508132,72.63590253719445,380001,5:00pm - 1:00am
378,"Gandhinagar Taluka, Gandhinagar District, Gujarat, 382428, India",23.130873356625628,72.63764590510418,382428,1:00am - 9:00am
379,"Gandhinagar Taluka, Gandhinagar District, Gujarat, 382428, India",23.117899473498657,72.6276896741012,382428,5:00pm - 1:00am
380,"Ghatlodiya, Ahmedabad, Ahmedabad City Taluka, Ahmedabad District, Gujarat, 380001, India",23.08482689623479,72.54697499953473,380001,1:00am - 9:00am
381,"Sabarmati, Ahmedabad, Ahmedabad City Taluka, Ahmedabad District, Gujarat, 380001, India",23.0868442,72.586987194444,380001,9:00am - 5:00pm
382,"Meghaninagar, Ahmedabad, Ahmedabad City Taluka, Ahmedabad District, Gujarat, 380001, India",23.0660571,72.6182713,380001,5:00pm - 1:00am
383,"Ghatlodiya, Ahmedabad, Ahmedabad City Taluka, Ahmedabad District, Gujarat, 380001, India",23.079397517212477,72.55897863402727,380001,9:00am - 5:00pm
384,"Sabarmati, Ahmedabad, Ahmedabad City Taluka, Ahmedabad District, Gujarat, 380001, India",23.08871395908526,72.59505527497844,380001,1:00am - 9:00am
385,"Gota, Ognaj, Daskroi Taluka, Ahmedabad District, Gujarat, 382481, India",23.110353385465924,72.53595268047044,382481,5:00pm - 1:00am
386,"Ahmedabad City Taluka, Ahmedabad District, Gujarat, 382424, India",23.118541882948513,72.5971205744287,382424,5:00pm - 1:00am
387,"Ambavadi / kubernagar, Ahmedabad, Ahmedabad City Taluka, Ahmedabad District, Gujarat, 380001, India",23.073725717382896,72.63846724973106,380001,1:00am - 9:00am
388,"Gota, Ognaj, Daskroi Taluka, Ahmedabad District, Gujarat, 380060, India",23.11116167456184,72.53143828530897,380060,5:00pm - 1:00am
389,"Gandhinagar Taluka, Gandhinagar District, Gujarat, 382424, India",23.127593269085608,72.60966414105253,382424,1:00am - 9:00am
390,"Bhagvat, Daskroi Taluka, Ahmedabad District, Gujarat, 380060, India",23.08143109626845,72.51597258057113,380060,9:00am - 5:00pm
391,"Daskroi Taluka, Ahmedabad District, Gujarat, 380019, India",23.12743257299696,72.5309569094075,380019,5:00pm - 1:00am
392,"D-cabin, Ahmedabad, Ahmedabad City Taluka, Ahmedabad District, Gujarat, 380001, India",23.1065633,72.5694086,380001,9:00am - 5:00pm
393,"Gota, Chenpur, Daskroi Taluka, Ahmedabad District, Gujarat, 382481, India",23.09184085442825,72.54543879570868,382481,1:00am - 9:00am
394,"Gandhinagar Taluka, Gandhinagar District, Gujarat, 382428, India",23.102880772741297,72.65122427292893,382428,1:00am - 9:00am
395,"Ghatlodiya, Ahmedabad, Ahmedabad City Taluka, Ahmedabad District, Gujarat, 380001, India",23.077168206742083,72.53662385903698,380001,5:00pm - 1:00am
396,"Kalapi nagar, Ahmedabad, Ahmedabad City Taluka, Ahmedabad District, Gujarat, 380001, India",23.050051798668143,72.62112407936866,380001,9:00am - 5:00pm
397,"D-cabin, Ahmedabad, Ahmedabad City Taluka, Ahmedabad District, Gujarat, 380001, India",23.098934370640244,72.57315062900405,380001,1:00am - 9:00am
398,"Motera Stadium Road, Ahmedabad, Ahmedabad City Taluka, Ahmedabad District, Gujarat, 380001, India",23.084526716112048,72.60624449178638,380001,5:00pm - 1:00am
399,"Shahibaug, Ahmedabad, Ahmedabad City Taluka, Ahmedabad District, Gujarat, 380001, India",23.053176883679168,72.59800459531016,380001,9:00am - 5:00pm
400,"Bhat GIDC, Koteshwar Village, Koteshwar, Gandhinagar Taluka, Gandhinagar District, Gujarat, 382428, India",23.09587198819715,72.62776098634417,382428,1:00am - 9:00am
401,"Gota, Ognaj, Daskroi Taluka, Ahmedabad District, Gujarat, 382481, India",23.10865146576791,72.53782162927861,382481,5:00pm - 1:00am
402,"Ognaj, Daskroi Taluka, Ahmedabad District, Gujarat, 380060, India",23.108224675566127,72.51590745453346,380060,9:00am - 5:00pm
403,"New Ranip, Ahmedabad, Ahmedabad City Taluka, Ahmedabad District, Gujarat, 380001, India",23.101987,72.5615001,380001,9:00am - 5:00pm
404,"Ranip, Ahmedabad, Ahmedabad City Taluka, Ahmedabad District, Gujarat, 380001, India",23.08092054948968,72.55897939828718,380001,5:00pm - 1:00am
405,"Sardar Vallabhai Patel International Airport, Kubernagar-Naroda Road, Naroda, Ahmedabad, Ahmedabad City Taluka, Ahmedabad District, Gujarat, 380003, India",23.0759129,72.63051649394484,380003,9:00am - 5:00pm
406,"Ahmedabad City Taluka, Ahmedabad District, Gujarat, 382424, India",23.1271699,72.5885004,382424,9:00am - 5:00pm
407,"Railway Colony, Ahmedabad, Ahmedabad City Taluka, Ahmedabad District, Gujarat, 380001, India",23.098128125684152,72.58159784953294,380001,9:00am - 5:00pm
408,"Ahmedabad City Taluka, Ahmedabad District, Gujarat, 382424, India",23.122859566204855,72.58536268151039,382424,1:00am - 9:00am
409,"Ahmedabad, Ahmedabad City Taluka, Ahmedabad District, Gujarat, 380001, India",23.087348314940083,72.61728550791086,380001,1:00am - 9:00am
410,"Tragad, Ahmedabad City Taluka, Ahmedabad District, Gujarat, 380019, India",23.1267883,72.550633,380019,9:00am - 5:00pm
411,"Chandkheda, Ahmedabad, Ahmedabad City Taluka, Ahmedabad District, Gujarat, 380001, India",23.107597179249623,72.58221559258084,380001,1:00am - 9:00am
412,"Bhagvat, Daskroi Taluka, Ahmedabad District, Gujarat, 380060, India",23.08705459669476,72.52717790787132,380060,1:00am - 9:00am
413,"Bhat, Gandhinagar Taluka, Gandhinagar District, Gujarat, 382428, India",23.10446383328101,72.6375670444034,382428,1:00am - 9:00am
414,"Gota, Chenpur, Daskroi Taluka, Ahmedabad District, Gujarat, 382481, India",23.09491696256977,72.54840701716157,382481,9:00am - 5:00pm
415,"Swaminarayan Avenue, Nava-Vadaj, Ahmedabad, Ahmedabad City Taluka, Ahmedabad District, Gujarat, 382480, India",23.0753663803252,72.56578127611357,382480,5:00pm - 1:00am
416,"Daskroi Taluka, Ahmedabad District, Gujarat, 380019, India",23.12811934404309,72.54003665523274,380019,1:00am - 9:00am
417,"Meghaninagar, Ahmedabad, Ahmedabad City Taluka, Ahmedabad District, Gujarat, 380001, India",23.06576854972298,72.61078324638422,380001,5:00pm - 1:00am
418,"Naroda, Ahmedabad, Ahmedabad City Taluka, Ahmedabad District, Gujarat, 382325, India",23.0558136,72.6523874,382325,1:00am - 9:00am
419,"Ghatlodiya, Ahmedabad, Ahmedabad City Taluka, Ahmedabad District, Gujarat, 380001, India",23.073631357800068,72.55059767971832,380001,1:00am - 9:00am
420,"Sola, Daskroi Taluka, Ahmedabad District, Gujarat, 380061, India",23.06270010688526,72.52535557038689,380061,9:00am - 5:00pm
421,"Memnagar, Ahmedabad, Ahmedabad City Taluka, Ahmedabad District, Gujarat, 380001, India",23.050184328003553,72.535898957487,380001,1:00am - 9:00am
422,"Tragad, Ahmedabad City Taluka, Ahmedabad District, Gujarat, 380019, India",23.13017142731007,72.55819791117656,380019,9:00am - 5:00pm
423,"Adalaj, Gandhinagar Taluka, Gandhinagar District, Gujarat, 382428, India",23.12786459466417,72.62506138678258,382428,9:00am - 5:00pm
424,"Bhagwat Nagar, Ahmedabad, Ahmedabad City Taluka, Ahmedabad District, Gujarat, 380001, India",23.065413,72.5302357,380001,1:00am - 9:00am
425,"Ognaj, Daskroi Taluka, Ahmedabad District, Gujarat, 380060, India",23.1083217,72.5158219,380060,5:00pm - 1:00am
426,"Gota, Daskroi Taluka, Ahmedabad District, Gujarat, 380019, India",23.120243001100935,72.54659781957253,380019,5:00pm - 1:00am
427,"Gota, Chenpur, Daskroi Taluka, Ahmedabad District, Gujarat, 382481, India",23.110475823259293,72.54952351172444,382481,5:00pm - 1:00am
428,"Gota, Chenpur, Daskroi Taluka, Ahmedabad District, Gujarat, 382481, India",23.09912947035905,72.54684109784792,382481,9:00am - 5:00pm
429,"Koteshwar Village, Koteshwar, Gandhinagar Taluka, Gandhinagar District, Gujarat, 382428, India",23.100270760343783,72.61473972885054,382428,9:00am - 5:00pm
430,"Daskroi Taluka, Ahmedabad District, Gujarat, 380019, India",23.12742815076772,72.53165108323203,380019,1:00am - 9:00am
431,"Usmanpura, Ahmedabad, Ahmedabad City Taluka, Ahmedabad District, Gujarat, 380001, India",23.048769494408173,72.56834819521207,380001,1:00am - 9:00am
432,"New Ranip, Ahmedabad, Ahmedabad City Taluka, Ahmedabad District, Gujarat, 380001, India",23.091390290294573,72.55608480686985,380001,5:00pm - 1:00am
433,"Hansol, Ambavadi / kubernagar, Ahmedabad, Ahmedabad City Taluka, Ahmedabad District, Gujarat, 380001, India",23.08308598415527,72.6336415100686,380001,5:00pm - 1:00am
434,"Naranpura, Ahmedabad, Ahmedabad City Taluka, Ahmedabad District, Gujarat, 380001, India",23.053559155031852,72.55043089399467,380001,1:00am - 9:00am
435,"Ahmedabad, Ahmedabad City Taluka, Ahmedabad District, Gujarat, 380001, India",23.087575540162625,72.65216583515424,380001,5:00pm - 1:00am
436,"Ghatlodiya, Ahmedabad, Ahmedabad City Taluka, Ahmedabad District, Gujarat, 380001, India",23.081605954450875,72.53978716791481,380001,1:00am - 9:00am
437,"Sahijpur boga, Ahmedabad, Ahmedabad City Taluka, Ahmedabad District, Gujarat, 380001, India",23.06182014415668,72.63451934204333,380001,5:00pm - 1:00am
438,"Ahmedabad, Ahmedabad City Taluka, Ahmedabad District, Gujarat, 380001, India",23.05458037486653,72.64706403211294,380001,1:00am - 9:00am
439,"Ahmedabad City Taluka, Ahmedabad District, Gujarat, 382424, India",23.117479104942305,72.58428809215562,382424,9:00am - 5:00pm
440,"Apollo Hospitals International Limited, Gandhinagar-Ahmedabad Highway, Bhat, Gandhinagar Taluka, Gandhinagar District, Gujarat, 382428, India",23.10980605,72.6261057807297,382428,1:00am - 9:00am
441,"Bodakdev, Daskroi Taluka, Ahmedabad District, Gujarat, 380059, India",23.051289288507277,72.51955258107996,380059,1:00am - 9:00am
442,"Bhagvat, Ognaj, Daskroi Taluka, Ahmedabad District, Gujarat, 380060, India",23.09740429934849,72.51983989764263,380060,1:00am - 9:00am
443,"Airport Service Road, Ambavadi / kubernagar, Ahmedabad, Ahmedabad City Taluka, Ahmedabad District, Gujarat, 380001, India",23.071291914463867,72.62468756480897,380001,5:00pm - 1:00am
444,"Sola, Daskroi Taluka, Ahmedabad District, Gujarat, 380059, India",23.0688415618719,72.51618570298217,380059,5:00pm - 1:00am
445,"Ambavadi / kubernagar, Ahmedabad, Ahmedabad City Taluka, Ahmedabad District, Gujarat, 380001, India",23.06474211293074,72.63810932407122,380001,1:00am - 9:00am
446,"Koteshwar Village, Koteshwar, Gandhinagar Taluka, Gandhinagar District, Gujarat, 382428, India",23.10054147402194,72.60948815924195,382428,9:00am - 5:00pm
447,"New Ranip, Ahmedabad, Ahmedabad City Taluka, Ahmedabad District, Gujarat, 380001, India",23.08470730286533,72.56380128385682,380001,9:00am - 5:00pm
448,"Ambavadi / kubernagar, Ahmedabad, Ahmedabad City Taluka, Ahmedabad District, Gujarat, 380001, India",23.061611659944823,72.63879172205854,380001,9:00am - 5:00pm
449,"Bhagvat, Daskroi Taluka, Ahmedabad District, Gujarat, 380060, India",23.092349851585638,72.51973491046779,380060,1:00am - 9:00am
450,"Gandhinagar Taluka, Gandhinagar District, Gujarat, 382428, India",23.115641581856945,72.65208599164116,382428,1:00am - 9:00am
451,"Ahmedabad, Ahmedabad City Taluka, Ahmedabad District, Gujarat, 380001, India",23.058474022196954,72.6511526184771,380001,5:00pm - 1:00am
452,"Bhagvat, Ognaj, Daskroi Taluka, Ahmedabad District, Gujarat, 380060, India",23.090129381787932,72.5258683168161,380060,1:00am - 9:00am
453,"Gujarat Police Academy, Karai, Karai Dam Road, Gandhinagar Taluka, Gandhinagar District, Gujarat, 382428, India",23.1318895,72.64959717644004,382428,5:00pm - 1:00am
454,"Ahmedabad, Ahmedabad City Taluka, Ahmedabad District, Gujarat, 380001, India",23.111914701481293,72.61252573827863,380001,5:00pm - 1:00am
455,"Sabarmati, Ahmedabad, Ahmedabad City Taluka, Ahmedabad District, Gujarat, 380001, India",23.0895932117872,72.60271409890076,380001,1:00am - 9:00am
456,"Kalapi nagar, Ahmedabad, Ahmedabad City Taluka, Ahmedabad District, Gujarat, 380001, India",23.052285263095126,72.6150978301965,380001,9:00am - 5:00pm
457,"Bhat, Gandhinagar Taluka, Gandhinagar District, Gujarat, 382428, India",23.1033193005704,72.64496896057157,382428,1:00am - 9:00am
458,"Apollo Hospitals International Limited, Gandhinagar-Ahmedabad Highway, Bhat, Gandhinagar Taluka, Gandhinagar District, Gujarat, 382428, India",23.10980605,72.6261057807297,382428,9:00am - 5:00pm
459,"Nirnay Nagar, Ahmedabad, Ahmedabad City Taluka, Ahmedabad District, Gujarat, 380001, India",23.07416942195783,72.55347217899813,380001,1:00am - 9:00am
460,"Chimanbhai patel Bridge, Ranip, Ahmedabad, Ahmedabad City Taluka, Ahmedabad District, Gujarat, 380001, India",23.069601412513066,72.58805878200907,380001,5:00pm - 1:00am
461,"Ahmedabad City Taluka, Ahmedabad District, Gujarat, 382424, India",23.125498783050112,72.58500375236342,382424,1:00am - 9:00am
462,"Gota, Chenpur, Daskroi Taluka, Ahmedabad District, Gujarat, 382481, India",23.107034515117697,72.54370595698386,382481,9:00am - 5:00pm
463,"Sabarmati, Ahmedabad, Ahmedabad City Taluka, Ahmedabad District, Gujarat, 380001, India",23.0847753,72.5904116,380001,5:00pm - 1:00am
464,"Ranip, Ahmedabad, Ahmedabad City Taluka, Ahmedabad District, Gujarat, 380001, India",23.077907233268633,72.5750406462437,380001,1:00am - 9:00am
465,"Dudheshwar Water Works, Dudheshwar Road, Dudheshwar, Ahmedabad, Ahmedabad City Taluka, Ahmedabad District, Gujarat, 380004, India",23.053271600000002,72.58265359984698,380004,9:00am - 5:00pm
466,"Bhagvat, Daskroi Taluka, Ahmedabad District, Gujarat, 380060, India",23.09382952482182,72.51426646909142,380060,9:00am - 5:00pm
467,"Ranip, Ahmedabad, Ahmedabad City Taluka, Ahmedabad District, Gujarat, 380001, India",23.0709411,72.5724071,380001,9:00am - 5:00pm
468,"Sardar Patel Sports Complex, Motera Stadium Entry Road, Sabarmati, Ahmedabad, Ahmedabad City Taluka, Ahmedabad District, Gujarat, 380001, India",23.09269475,72.59783578302674,380001,5:00pm - 1:00am
469,"Tapovan Sanskar Peeth, Sardar Patel Ring Road, Gandhinagar Taluka, Gandhinagar District, Gujarat, 382424, India",23.12488025,72.61329833862106,382424,5:00pm - 1:00am
470,"Ahmedabad, Ahmedabad City Taluka, Ahmedabad District, Gujarat, 380001, India",23.1148647,72.6187143,380001,9:00am - 5:00pm
471,"Meghaninagar, Ahmedabad, Ahmedabad City Taluka, Ahmedabad District, Gujarat, 380001, India",23.06485527634803,72.60819947822911,380001,1:00am - 9:00am
472,"Ahmedabad City Taluka, Ahmedabad District, Gujarat, 382424, India",23.127549069507214,72.58477619645383,382424,1:00am - 9:00am
473,"Gandhinagar Taluka, Gandhinagar District, Gujarat, 382428, India",23.123103478742532,72.63403129416959,382428,9:00am - 5:00pm
474,"Meghaninagar, Ahmedabad, Ahmedabad City Taluka, Ahmedabad District, Gujarat, 380001, India",23.058339842324777,72.60402452265049,380001,9:00am - 5:00pm
475,"Gota, Ognaj, Daskroi Taluka, Ahmedabad District, Gujarat, 380060, India",23.104899651158107,72.52883070831876,380060,5:00pm - 1:00am
476,"Airport Road, Shahibaug, Ahmedabad, Ahmedabad City Taluka, Ahmedabad District, Gujarat, 380001, India",23.06819789623752,72.60140888225428,380001,1:00am - 9:00am
477,"Chandkheda, Ahmedabad, Ahmedabad City Taluka, Ahmedabad District, Gujarat, 380001, India",23.112525844487923,72.57206820526288,380001,1:00am - 9:00am
478,"Sabarmati Jail, Sabarmati Jail Road, Sabarmati, Ahmedabad, Ahmedabad City Taluka, Ahmedabad District, Gujarat, 380001, India",23.07488815,72.58411891536974,380001,1:00am - 9:00am
479,"Gota, Daskroi Taluka, Ahmedabad District, Gujarat, 382481, India",23.09521291423303,72.54204010529736,382481,5:00pm - 1:00am
480,"Apollo Hospitals International Limited, Gandhinagar-Ahmedabad Highway, Bhat, Gandhinagar Taluka, Gandhinagar District, Gujarat, 382428, India",23.10980605,72.6261057807297,382428,1:00am - 9:00am
481,"Naroda, Ahmedabad, Ahmedabad City Taluka, Ahmedabad District, Gujarat, 382325, India",23.065292350255785,72.64127239092952,382325,9:00am - 5:00pm
482,"Bhagvat, Daskroi Taluka, Ahmedabad District, Gujarat, 380060, India",23.08402806236572,72.52094656397557,380060,9:00am - 5:00pm
483,"Saamarth Heaven III, Ahmedabad City Taluka, Ahmedabad District, Gujarat, 382424, India",23.119595000915314,72.60561808818846,382424,5:00pm - 1:00am
484,"Meghaninagar, Ahmedabad, Ahmedabad City Taluka, Ahmedabad District, Gujarat, 380001, India",23.069038917218794,72.60802740778499,380001,1:00am - 9:00am
485,"Ahmedabad, Ahmedabad City Taluka, Ahmedabad District, Gujarat, 380001, India",23.0872839,72.6140127,380001,1:00am - 9:00am
486,"Dudheshwar Water Works, Dudheshwar Road, Dudheshwar, Ahmedabad, Ahmedabad City Taluka, Ahmedabad District, Gujarat, 380004, India",23.053271600000002,72.58265359984698,380004,9:00am - 5:00pm
487,"Rana Pratap Marg, Ghatlodiya, Ahmedabad, Ahmedabad City Taluka, Ahmedabad District, Gujarat, 380001, India",23.08239254805955,72.53390792432566,380001,9:00am - 5:00pm
488,"Bhagwat Nagar, Ahmedabad, Ahmedabad City Taluka, Ahmedabad District, Gujarat, 380001, India",23.07236352165422,72.52478467120261,380001,5:00pm - 1:00am
489,"Chenpur, Daskroi Taluka, Ahmedabad District, Gujarat, 380019, India",23.11706142145776,72.55289905487777,380019,5:00pm - 1:00am
490,"SH41, Chandkheda, Ahmedabad, Ahmedabad City Taluka, Ahmedabad District, Gujarat, 380001, India",23.127154220548565,72.58375830707014,380001,1:00am - 9:00am
491,"Airport Service Road, Sahijpur boga, Ahmedabad, Ahmedabad City Taluka, Ahmedabad District, Gujarat, 380001, India",23.06418442771281,72.6267466095775,380001,9:00am - 5:00pm
492,"Ahmedabad, Ahmedabad City Taluka, Ahmedabad District, Gujarat, 380001, India",23.10992177469778,72.61666572194262,380001,5:00pm - 1:00am
493,"SH71, Ahmedabad, Ahmedabad City Taluka, Ahmedabad District, Gujarat, 380001, India",23.11732461585331,72.61220126630856,380001,1:00am - 9:00am
494,"Ahmedabad, Ahmedabad City Taluka, Ahmedabad District, Gujarat, 380001, India",23.10579541788497,72.60709160119572,380001,1:00am - 9:00am
495,"Ahmedabad, Ahmedabad City Taluka, Ahmedabad District, Gujarat, 380001, India",23.112426205208003,72.60457362623839,380001,1:00am - 9:00am
496,"Tirupati Road, New Ranip, Ahmedabad, Ahmedabad City Taluka, Ahmedabad District, Gujarat, 380001, India",23.09218801727639,72.559273760804,380001,1:00am - 9:00am
497,"Thaltej, Daskroi Taluka, Ahmedabad District, Gujarat, 380059, India",23.0567269,72.5137888,380059,1:00am - 9:00am
498,"D-cabin, Ahmedabad, Ahmedabad City Taluka, Ahmedabad District, Gujarat, 380001, India",23.103336117786732,72.56874216624911,380001,1:00am - 9:00am
499,"Naroda, Ahmedabad, Ahmedabad City Taluka, Ahmedabad District, Gujarat, 382325, India",23.071123076019322,72.65325650645163,382325,9:00am - 5:00pm
